{"fetched_at":"2026-07-07T07:58:12.386Z","source":"https://celestrak.org/NORAD/elements/gp.php?GROUP=planet&FORMAT=JSON","constellation":"superdove","records":[{"OBJECT_NAME":"FLOCK 4H-15","OBJECT_ID":"2025-276BE","EPOCH":"2026-07-06T16:05:43.303776","CLASSIFICATION_TYPE":"U","MEAN_MOTION":15.19811183,"ECCENTRICITY":0.0002998,"INCLINATION":97.4211,"RA_OF_ASC_NODE":260.8391,"ARG_OF_PERICENTER":323.1738,"MEAN_ANOMALY":36.9291,"EPHEMERIS_TYPE":0,"NORAD_CAT_ID":66718,"ELEMENT_SET_NO":999,"REV_AT_EPOCH":3337,"BSTAR":0.00027901,"MEAN_MOTION_DOT":0.0000591,"MEAN_MOTION_DDOT":0},{"OBJECT_NAME":"FLOCK 4H-16","OBJECT_ID":"2025-276BF","EPOCH":"2026-07-06T15:28:34.671072","CLASSIFICATION_TYPE":"U","MEAN_MOTION":15.20075694,"ECCENTRICITY":0.0002772,"INCLINATION":97.4226,"RA_OF_ASC_NODE":260.9189,"ARG_OF_PERICENTER":304.6328,"MEAN_ANOMALY":55.4646,"EPHEMERIS_TYPE":0,"NORAD_CAT_ID":66719,"ELEMENT_SET_NO":999,"REV_AT_EPOCH":3337,"BSTAR":0.00026831,"MEAN_MOTION_DOT":0.00005724,"MEAN_MOTION_DDOT":0},{"OBJECT_NAME":"FLOCK 4H-18","OBJECT_ID":"2025-276BH","EPOCH":"2026-07-06T15:36:59.203872","CLASSIFICATION_TYPE":"U","MEAN_MOTION":15.20018428,"ECCENTRICITY":0.0002738,"INCLINATION":97.4166,"RA_OF_ASC_NODE":260.7456,"ARG_OF_PERICENTER":340.6307,"MEAN_ANOMALY":19.4824,"EPHEMERIS_TYPE":0,"NORAD_CAT_ID":66721,"ELEMENT_SET_NO":999,"REV_AT_EPOCH":3337,"BSTAR":0.00026358,"MEAN_MOTION_DOT":0.00005613,"MEAN_MOTION_DDOT":0},{"OBJECT_NAME":"FLOCK 4H-19","OBJECT_ID":"2025-276BJ","EPOCH":"2026-07-06T15:45:36.844416","CLASSIFICATION_TYPE":"U","MEAN_MOTION":15.21222092,"ECCENTRICITY":0.0001667,"INCLINATION":97.4167,"RA_OF_ASC_NODE":261.1986,"ARG_OF_PERICENTER":164.0251,"MEAN_ANOMALY":196.1038,"EPHEMERIS_TYPE":0,"NORAD_CAT_ID":66722,"ELEMENT_SET_NO":999,"REV_AT_EPOCH":3269,"BSTAR":0.00019641,"MEAN_MOTION_DOT":0.00004314,"MEAN_MOTION_DDOT":0},{"OBJECT_NAME":"FLOCK 4H-20","OBJECT_ID":"2025-276BK","EPOCH":"2026-07-06T17:24:40.544064","CLASSIFICATION_TYPE":"U","MEAN_MOTION":15.21374077,"ECCENTRICITY":0.0002019,"INCLINATION":97.4205,"RA_OF_ASC_NODE":261.3663,"ARG_OF_PERICENTER":195.8577,"MEAN_ANOMALY":164.2596,"EPHEMERIS_TYPE":0,"NORAD_CAT_ID":66723,"ELEMENT_SET_NO":999,"REV_AT_EPOCH":3266,"BSTAR":0.00022136,"MEAN_MOTION_DOT":0.00004893,"MEAN_MOTION_DDOT":0},{"OBJECT_NAME":"FLOCK 4H-21","OBJECT_ID":"2025-276BL","EPOCH":"2026-07-06T16:31:47.097120","CLASSIFICATION_TYPE":"U","MEAN_MOTION":15.20959262,"ECCENTRICITY":0.0001801,"INCLINATION":97.4171,"RA_OF_ASC_NODE":261.163,"ARG_OF_PERICENTER":195.9453,"MEAN_ANOMALY":164.1726,"EPHEMERIS_TYPE":0,"NORAD_CAT_ID":66724,"ELEMENT_SET_NO":999,"REV_AT_EPOCH":3265,"BSTAR":0.00027614,"MEAN_MOTION_DOT":0.00006048,"MEAN_MOTION_DDOT":0},{"OBJECT_NAME":"FLOCK 4H-22","OBJECT_ID":"2025-276BM","EPOCH":"2026-07-06T15:57:03.496320","CLASSIFICATION_TYPE":"U","MEAN_MOTION":15.20444389,"ECCENTRICITY":0.0001611,"INCLINATION":97.4163,"RA_OF_ASC_NODE":260.858,"ARG_OF_PERICENTER":355.5646,"MEAN_ANOMALY":4.5575,"EPHEMERIS_TYPE":0,"NORAD_CAT_ID":66725,"ELEMENT_SET_NO":999,"REV_AT_EPOCH":3338,"BSTAR":0.00028699,"MEAN_MOTION_DOT":0.00006194,"MEAN_MOTION_DDOT":0},{"OBJECT_NAME":"FLOCK 4H-23","OBJECT_ID":"2025-276BN","EPOCH":"2026-07-06T17:10:39.412416","CLASSIFICATION_TYPE":"U","MEAN_MOTION":15.1999748,"ECCENTRICITY":0.0002813,"INCLINATION":97.4228,"RA_OF_ASC_NODE":260.9902,"ARG_OF_PERICENTER":291.8383,"MEAN_ANOMALY":68.2553,"EPHEMERIS_TYPE":0,"NORAD_CAT_ID":66726,"ELEMENT_SET_NO":999,"REV_AT_EPOCH":3338,"BSTAR":0.00023303,"MEAN_MOTION_DOT":0.00004951,"MEAN_MOTION_DDOT":0},{"OBJECT_NAME":"FLOCK 4H-24","OBJECT_ID":"2025-276BP","EPOCH":"2026-07-06T16:49:37.327008","CLASSIFICATION_TYPE":"U","MEAN_MOTION":15.20104408,"ECCENTRICITY":0.000255,"INCLINATION":97.4226,"RA_OF_ASC_NODE":261.004,"ARG_OF_PERICENTER":316.7279,"MEAN_ANOMALY":43.3755,"EPHEMERIS_TYPE":0,"NORAD_CAT_ID":66727,"ELEMENT_SET_NO":999,"REV_AT_EPOCH":3338,"BSTAR":0.00027752,"MEAN_MOTION_DOT":0.00005928,"MEAN_MOTION_DDOT":0},{"OBJECT_NAME":"FLOCK 4H-25","OBJECT_ID":"2025-276BQ","EPOCH":"2026-07-06T16:57:41.853024","CLASSIFICATION_TYPE":"U","MEAN_MOTION":15.20875072,"ECCENTRICITY":0.0001459,"INCLINATION":97.4183,"RA_OF_ASC_NODE":261.172,"ARG_OF_PERICENTER":129.7425,"MEAN_ANOMALY":230.394,"EPHEMERIS_TYPE":0,"NORAD_CAT_ID":66728,"ELEMENT_SET_NO":999,"REV_AT_EPOCH":3268,"BSTAR":0.00021451,"MEAN_MOTION_DOT":0.00004671,"MEAN_MOTION_DDOT":0},{"OBJECT_NAME":"FLOCK 4H-26","OBJECT_ID":"2025-276BR","EPOCH":"2026-07-06T17:35:32.777664","CLASSIFICATION_TYPE":"U","MEAN_MOTION":15.1983101,"ECCENTRICITY":0.0003304,"INCLINATION":97.418,"RA_OF_ASC_NODE":260.826,"ARG_OF_PERICENTER":310.8677,"MEAN_ANOMALY":49.2271,"EPHEMERIS_TYPE":0,"NORAD_CAT_ID":66729,"ELEMENT_SET_NO":999,"REV_AT_EPOCH":3338,"BSTAR":0.00023583,"MEAN_MOTION_DOT":0.00004987,"MEAN_MOTION_DDOT":0},{"OBJECT_NAME":"FLOCK 4H-27","OBJECT_ID":"2025-276BS","EPOCH":"2026-07-06T16:05:36.766752","CLASSIFICATION_TYPE":"U","MEAN_MOTION":15.2069586,"ECCENTRICITY":0.0001162,"INCLINATION":97.4157,"RA_OF_ASC_NODE":260.9945,"ARG_OF_PERICENTER":121.8494,"MEAN_ANOMALY":238.2855,"EPHEMERIS_TYPE":0,"NORAD_CAT_ID":66730,"ELEMENT_SET_NO":999,"REV_AT_EPOCH":3339,"BSTAR":0.00027015,"MEAN_MOTION_DOT":0.0000587,"MEAN_MOTION_DDOT":0},{"OBJECT_NAME":"FLOCK 4H-29","OBJECT_ID":"2025-276BU","EPOCH":"2026-07-06T15:32:23.332992","CLASSIFICATION_TYPE":"U","MEAN_MOTION":15.19968483,"ECCENTRICITY":0.0002113,"INCLINATION":97.4158,"RA_OF_ASC_NODE":260.7249,"ARG_OF_PERICENTER":339.302,"MEAN_ANOMALY":20.8129,"EPHEMERIS_TYPE":0,"NORAD_CAT_ID":66732,"ELEMENT_SET_NO":999,"REV_AT_EPOCH":3337,"BSTAR":0.00026085,"MEAN_MOTION_DOT":0.00005546,"MEAN_MOTION_DDOT":0},{"OBJECT_NAME":"FLOCK 4H-30","OBJECT_ID":"2025-276BV","EPOCH":"2026-07-06T04:18:10.975680","CLASSIFICATION_TYPE":"U","MEAN_MOTION":15.20087546,"ECCENTRICITY":0.00028378,"INCLINATION":97.422,"RA_OF_ASC_NODE":260.463,"ARG_OF_PERICENTER":316.9681,"MEAN_ANOMALY":43.1331,"EPHEMERIS_TYPE":0,"NORAD_CAT_ID":66733,"ELEMENT_SET_NO":999,"REV_AT_EPOCH":3330,"BSTAR":0.00033133855,"MEAN_MOTION_DOT":0.00007089,"MEAN_MOTION_DDOT":0},{"OBJECT_NAME":"FLOCK 4H-31","OBJECT_ID":"2025-276BW","EPOCH":"2026-07-06T17:24:56.003616","CLASSIFICATION_TYPE":"U","MEAN_MOTION":15.19871272,"ECCENTRICITY":0.0002419,"INCLINATION":97.4158,"RA_OF_ASC_NODE":260.7702,"ARG_OF_PERICENTER":329.8198,"MEAN_ANOMALY":30.2898,"EPHEMERIS_TYPE":0,"NORAD_CAT_ID":66734,"ELEMENT_SET_NO":999,"REV_AT_EPOCH":3338,"BSTAR":0.00022934,"MEAN_MOTION_DOT":0.00004853,"MEAN_MOTION_DDOT":0},{"OBJECT_NAME":"FLOCK 4H-32","OBJECT_ID":"2025-276BX","EPOCH":"2026-07-06T15:33:40.647168","CLASSIFICATION_TYPE":"U","MEAN_MOTION":15.19990016,"ECCENTRICITY":0.0003102,"INCLINATION":97.4212,"RA_OF_ASC_NODE":260.8826,"ARG_OF_PERICENTER":308.9973,"MEAN_ANOMALY":51.0985,"EPHEMERIS_TYPE":0,"NORAD_CAT_ID":66735,"ELEMENT_SET_NO":999,"REV_AT_EPOCH":3337,"BSTAR":0.00024972,"MEAN_MOTION_DOT":0.00005309,"MEAN_MOTION_DDOT":0}]}
