FLOCK 4H-15             
1 66718U 25276BE  26187.67064009  .00005910  00000+0  27901-3 0  9992
2 66718  97.4211 260.8391 0002998 323.1738  36.9291 15.19811183 33372
FLOCK 4H-16             
1 66719U 25276BF  26187.64484573  .00005724  00000+0  26831-3 0  9996
2 66719  97.4226 260.9189 0002772 304.6328  55.4646 15.20075694 33375
FLOCK 4H-18             
1 66721U 25276BH  26187.65068523  .00005613  00000+0  26358-3 0  9994
2 66721  97.4166 260.7456 0002738 340.6307  19.4824 15.20018428 33375
FLOCK 4H-19             
1 66722U 25276BJ  26187.65667644  .00004314  00000+0  19641-3 0  9998
2 66722  97.4167 261.1986 0001667 164.0251 196.1038 15.21222092 32695
FLOCK 4H-20             
1 66723U 25276BK  26187.72546926  .00004893  00000+0  22136-3 0  9991
2 66723  97.4205 261.3663 0002019 195.8577 164.2596 15.21374077 32661
FLOCK 4H-21             
1 66724U 25276BL  26187.68873955  .00006048  00000+0  27614-3 0  9992
2 66724  97.4171 261.1630 0001801 195.9453 164.1726 15.20959262 32655
FLOCK 4H-22             
1 66725U 25276BM  26187.66462380  .00006194  00000+0  28699-3 0  9993
2 66725  97.4163 260.8580 0001611 355.5646   4.5575 15.20444389 33383
FLOCK 4H-23             
1 66726U 25276BN  26187.71573394  .00004951  00000+0  23303-3 0  9994
2 66726  97.4228 260.9902 0002813 291.8383  68.2553 15.19997480 33386
FLOCK 4H-24             
1 66727U 25276BP  26187.70112647  .00005928  00000+0  27752-3 0  9991
2 66727  97.4226 261.0040 0002550 316.7279  43.3755 15.20104408 33389
FLOCK 4H-25             
1 66728U 25276BQ  26187.70673441  .00004671  00000+0  21451-3 0  9990
2 66728  97.4183 261.1720 0001459 129.7425 230.3940 15.20875072 32688
FLOCK 4H-26             
1 66729U 25276BR  26187.73301826  .00004987  00000+0  23583-3 0  9997
2 66729  97.4180 260.8260 0003304 310.8677  49.2271 15.19831010 33388
FLOCK 4H-27             
1 66730U 25276BS  26187.67056443  .00005870  00000+0  27015-3 0  9990
2 66730  97.4157 260.9945 0001162 121.8494 238.2855 15.20695860 33394
FLOCK 4H-29             
1 66732U 25276BU  26187.64749228  .00005546  00000+0  26085-3 0  9995
2 66732  97.4158 260.7249 0002113 339.3020  20.8129 15.19968483 33379
FLOCK 4H-30             
1 66733U 25276BV  26187.17929370  .00007089  00000+0  33134-3 0  9999
2 66733  97.4220 260.4630 0002837 316.9681  43.1331 15.20087546 33308
FLOCK 4H-31             
1 66734U 25276BW  26187.72564819  .00004853  00000+0  22934-3 0  9996
2 66734  97.4158 260.7702 0002419 329.8198  30.2898 15.19871272 33382
FLOCK 4H-32             
1 66735U 25276BX  26187.64838712  .00005309  00000+0  24972-3 0  9995
2 66735  97.4212 260.8826 0003102 308.9973  51.0985 15.19990016 33376
